32264,GLOBALSTAR M070,2007,114.08,450.0,+,51.98,Active,1,LEO,Kazakhstan,Globalstar,Commercial,Communications,Soyuz,1 32264U 07048B   24366.90060677 -.00000036  00000+0  37809-3 0  9991,2 32264  51.9755 278.1250 0000921  66.3181 334.9365 12.62309071792544,12.62309071,9.21e-05,LEO
32265,GLOBALSTAR M066,2007,115.93,450.0,+,51.96,Active,1,LEO,Kazakhstan,Globalstar,Commercial,Communications,Soyuz,1 32265U 07048C   24366.92469450 -.00000114  00000+0 -11996-3 0  9993,2 32265  51.9650 151.8543 0001601 102.6619  75.2590 12.42169005794598,12.42169005,0.0001601,LEO
37188,GLOBALSTAR M079,2010,114.08,700.0,+,52.01,Active,1,LEO,Kazakhstan,Globalstar,Commercial,Communications,Soyuz,1 37188U 10054A   24366.86297216 -.00000057  00000+0  26105-3 0  9998,2 37188  52.0049 289.1509 0000527  36.3041  32.3846 12.62269126655328,12.62269126,5.27e-05,LEO
37189,GLOBALSTAR M074,2010,114.08,700.0,+,52.0,Active,1,LEO,Kazakhstan,Globalstar,Commercial,Communications,Soyuz,1 37189U 10054B   24366.89083010 -.00000050  00000+0  29951-3 0  9992,2 37189  52.0026 288.4132 0000893  54.6136  21.3189 12.62260950655933,12.6226095,8.93e-05,LEO
37190,GLOBALSTAR M076,2010,114.08,700.0,+,52.0,Active,1,LEO,Kazakhstan,Globalstar,Commercial,Communications,Soyuz,1 37190U 10054C   24366.90678351 -.00000065  00000+0  21800-3 0  9995,2 37190  52.0038 288.5212 0000841  33.9845 354.1293 12.62275494655659,12.62275494,8.41e-05,LEO
37191,GLOBALSTAR M077,2010,114.08,700.0,+,52.01,Active,1,LEO,Kazakhstan,Globalstar,Commercial,Communications,Soyuz,1 37191U 10054D   24366.91196826 -.00000056  00000+0  26638-3 0  9993,2 37191  52.0058 245.3151 0000980  69.1419  41.7338 12.62269292656027,12.62269292,9.8e-05,LEO
